{
  "type": "FeatureCollection",
  "features": [
    {
      "type": "Feature",
      "properties": {
        "norad_id": 38220,
        "name": "COSMOS 2251 DEB",
        "group": "cosmos-2251-debris",
        "lat": -63.51053810271714,
        "lon": -104.43917791246866,
        "alt_km": 595.4668786056527,
        "timestamp": "2025-12-26T13:39:19.378184+00:00",
        "meta_object_name": "COSMOS 2251 DEB",
        "meta_object_id": "1993-036BTL",
        "meta_epoch": "2025-12-25T02:47:20.409216",
        "meta_mean_motion": 14.93616578,
        "meta_eccentricity": 0.00060459,
        "meta_inclination": 74.0136,
        "meta_ra_of_asc_node": 43.3689,
        "meta_arg_of_pericenter": 13.8896,
        "meta_mean_anomaly": 346.2452,
        "meta_ephemeris_type": 0,
        "meta_classification_type": "U",
        "meta_norad_cat_id": 38220,
        "meta_element_set_no": 999,
        "meta_rev_at_epoch": 71555,
        "meta_bstar": 0.0029073609,
        "meta_mean_motion_dot": 0.00030813,
        "meta_mean_motion_ddot": 0,
        "tle_line1": "1 38220U 93036BTL 25359.11620844  .00030813  00000+0  29074-2 0  9994",
        "tle_line2": "2 38220  74.0136  43.3689 0006045  13.8896 346.2452 14.93616578715550"
      },
      "geometry": {
        "type": "Point",
        "coordinates": [
          -104.43917791246866,
          -63.51053810271714
        ]
      }
    },
    {
      "type": "Feature",
      "properties": {
        "norad_id": 38479,
        "name": "COSMOS 2251 DEB",
        "group": "cosmos-2251-debris",
        "lat": 15.043933766809376,
        "lon": -25.672977715176728,
        "alt_km": 774.6886529674539,
        "timestamp": "2025-12-26T13:39:19.378194+00:00",
        "meta_object_name": "COSMOS 2251 DEB",
        "meta_object_id": "1993-036BTP",
        "meta_epoch": "2025-12-23T05:36:33.154848",
        "meta_mean_motion": 14.38410381,
        "meta_eccentricity": 0.00839559,
        "meta_inclination": 74.0057,
        "meta_ra_of_asc_node": 164.9051,
        "meta_arg_of_pericenter": 271.8436,
        "meta_mean_anomaly": 269.121,
        "meta_ephemeris_type": 0,
        "meta_classification_type": "U",
        "meta_norad_cat_id": 38479,
        "meta_element_set_no": 999,
        "meta_rev_at_epoch": 64838,
        "meta_bstar": 0.0020977765,
        "meta_mean_motion_dot": 6.644e-05,
        "meta_mean_motion_ddot": 0,
        "tle_line1": "1 38479U 93036BTP 25357.23371707  .00006644  00000+0  20978-2 0  9991",
        "tle_line2": "2 38479  74.0057 164.9051 0083955 271.8436 269.1210 14.38410381648386"
      },
      "geometry": {
        "type": "Point",
        "coordinates": [
          -25.672977715176728,
          15.043933766809376
        ]
      }
    },
    {
      "type": "Feature",
      "properties": {
        "norad_id": 38481,
        "name": "COSMOS 2251 DEB",
        "group": "cosmos-2251-debris",
        "lat": 61.88056503565095,
        "lon": 16.290267277083935,
        "alt_km": 1044.5612604658008,
        "timestamp": "2025-12-26T13:39:19.378204+00:00",
        "meta_object_name": "COSMOS 2251 DEB",
        "meta_object_id": "1993-036BTR",
        "meta_epoch": "2025-12-24T16:34:49.611936",
        "meta_mean_motion": 13.9488699,
        "meta_eccentricity": 0.02349003,
        "meta_inclination": 73.9328,
        "meta_ra_of_asc_node": 346.8989,
        "meta_arg_of_pericenter": 284.9937,
        "meta_mean_anomaly": 72.5302,
        "meta_ephemeris_type": 0,
        "meta_classification_type": "U",
        "meta_norad_cat_id": 38481,
        "meta_element_set_no": 999,
        "meta_rev_at_epoch": 59227,
        "meta_bstar": 0.0016488432,
        "meta_mean_motion_dot": 2.762e-05,
        "meta_mean_motion_ddot": 0,
        "tle_line1": "1 38481U 93036BTR 25358.69085199  .00002762  00000+0  16488-2 0  9990",
        "tle_line2": "2 38481  73.9328 346.8989 0234900 284.9937  72.5302 13.94886990592276"
      },
      "geometry": {
        "type": "Point",
        "coordinates": [
          16.290267277083935,
          61.88056503565095
        ]
      }
    },
    {
      "type": "Feature",
      "properties": {
        "norad_id": 38483,
        "name": "COSMOS 2251 DEB",
        "group": "cosmos-2251-debris",
        "lat": 53.156740635331495,
        "lon": 9.110406383624992,
        "alt_km": 722.5206930140612,
        "timestamp": "2025-12-26T13:39:19.378214+00:00",
        "meta_object_name": "COSMOS 2251 DEB",
        "meta_object_id": "1993-036BTT",
        "meta_epoch": "2025-12-12T08:16:48.530496",
        "meta_mean_motion": 14.28787654,
        "meta_eccentricity": 0.01107994,
        "meta_inclination": 74.262,
        "meta_ra_of_asc_node": 12.4521,
        "meta_arg_of_pericenter": 118.0167,
        "meta_mean_anomaly": 243.2246,
        "meta_ephemeris_type": 0,
        "meta_classification_type": "U",
        "meta_norad_cat_id": 38483,
        "meta_element_set_no": 999,
        "meta_rev_at_epoch": 63472,
        "meta_bstar": 0.0012977102,
        "meta_mean_motion_dot": 3.471e-05,
        "meta_mean_motion_ddot": 0,
        "tle_line1": "1 38483U 93036BTT 25346.34500614  .00003471  00000+0  12977-2 0  9992",
        "tle_line2": "2 38483  74.2620  12.4521 0110799 118.0167 243.2246 14.28787654634722"
      },
      "geometry": {
        "type": "Point",
        "coordinates": [
          9.110406383624992,
          53.156740635331495
        ]
      }
    },
    {
      "type": "Feature",
      "properties": {
        "norad_id": 38486,
        "name": "COSMOS 2251 DEB",
        "group": "cosmos-2251-debris",
        "lat": 72.61161053266135,
        "lon": -69.16165012032623,
        "alt_km": 657.9191070234592,
        "timestamp": "2025-12-26T13:39:19.378224+00:00",
        "meta_object_name": "COSMOS 2251 DEB",
        "meta_object_id": "1993-036BTW",
        "meta_epoch": "2025-12-26T05:52:28.851168",
        "meta_mean_motion": 14.73607575,
        "meta_eccentricity": 0.00308492,
        "meta_inclination": 73.9406,
        "meta_ra_of_asc_node": 178.3788,
        "meta_arg_of_pericenter": 320.8667,
        "meta_mean_anomaly": 216.4597,
        "meta_ephemeris_type": 0,
        "meta_classification_type": "U",
        "meta_norad_cat_id": 38486,
        "meta_element_set_no": 999,
        "meta_rev_at_epoch": 75633,
        "meta_bstar": 0.0022062553,
        "meta_mean_motion_dot": 0.00014479,
        "meta_mean_motion_ddot": 0,
        "tle_line1": "1 38486U 93036BTW 25360.24477837  .00014479  00000+0  22063-2 0  9997",
        "tle_line2": "2 38486  73.9406 178.3788 0030849 320.8667 216.4597 14.73607575756331"
      },
      "geometry": {
        "type": "Point",
        "coordinates": [
          -69.16165012032623,
          72.61161053266135
        ]
      }
    },
    {
      "type": "Feature",
      "properties": {
        "norad_id": 38487,
        "name": "COSMOS 2251 DEB",
        "group": "cosmos-2251-debris",
        "lat": -70.30799116194561,
        "lon": -48.60901376398609,
        "alt_km": 522.0845248930254,
        "timestamp": "2025-12-26T13:39:19.378234+00:00",
        "meta_object_name": "COSMOS 2251 DEB",
        "meta_object_id": "1993-036BTX",
        "meta_epoch": "2025-12-21T18:32:44.643552",
        "meta_mean_motion": 15.1793295,
        "meta_eccentricity": 0.00206459,
        "meta_inclination": 73.9735,
        "meta_ra_of_asc_node": 14.8819,
        "meta_arg_of_pericenter": 185.3276,
        "meta_mean_anomaly": 174.7704,
        "meta_ephemeris_type": 0,
        "meta_classification_type": "U",
        "meta_norad_cat_id": 38487,
        "meta_element_set_no": 999,
        "meta_rev_at_epoch": 66937,
        "meta_bstar": 0.0019265154,
        "meta_mean_motion_dot": 0.00039496,
        "meta_mean_motion_ddot": 0,
        "tle_line1": "1 38487U 93036BTX 25355.77273893  .00039496  00000+0  19265-2 0  9992",
        "tle_line2": "2 38487  73.9735  14.8819 0020645 185.3276 174.7704 15.17932950669379"
      },
      "geometry": {
        "type": "Point",
        "coordinates": [
          -48.60901376398609,
          -70.30799116194561
        ]
      }
    },
    {
      "type": "Feature",
      "properties": {
        "norad_id": 39109,
        "name": "COSMOS 2251 DEB",
        "group": "cosmos-2251-debris",
        "lat": 21.633522827116593,
        "lon": -155.24126164556233,
        "alt_km": 653.2935228314709,
        "timestamp": "2025-12-26T13:39:19.378244+00:00",
        "meta_object_name": "COSMOS 2251 DEB",
        "meta_object_id": "1993-036BTY",
        "meta_epoch": "2025-12-26T05:56:43.253376",
        "meta_mean_motion": 14.70799754,
        "meta_eccentricity": 0.00596027,
        "meta_inclination": 74.0417,
        "meta_ra_of_asc_node": 198.8655,
        "meta_arg_of_pericenter": 299.4353,
        "meta_mean_anomaly": 182.2563,
        "meta_ephemeris_type": 0,
        "meta_classification_type": "U",
        "meta_norad_cat_id": 39109,
        "meta_element_set_no": 999,
        "meta_rev_at_epoch": 65372,
        "meta_bstar": 0.00047481447,
        "meta_mean_motion_dot": 2.947e-05,
        "meta_mean_motion_ddot": 0,
        "tle_line1": "1 39109U 93036BTY 25360.24772284  .00002947  00000+0  47481-3 0  9993",
        "tle_line2": "2 39109  74.0417 198.8655 0059602 299.4353 182.2563 14.70799754653729"
      },
      "geometry": {
        "type": "Point",
        "coordinates": [
          -155.24126164556233,
          21.633522827116593
        ]
      }
    }
  ]
}